{
  "type": "FeatureCollection",
  "features": [
    {
      "type": "Feature",
      "properties": {
        "norad_id": 34350,
        "name": "IRIDIUM 33 DEB",
        "group": "iridium-33-debris",
        "lat": -78.63147362727815,
        "lon": -158.22038450047629,
        "alt_km": 756.6626172177748,
        "timestamp": "2025-12-11T22:43:47.654634+00:00",
        "meta_object_name": "IRIDIUM 33 DEB",
        "meta_object_id": "1997-051ES",
        "meta_epoch": "2025-12-11T12:10:25.711392",
        "meta_mean_motion": 14.45383179,
        "meta_eccentricity": 0.00227259,
        "meta_inclination": 86.3276,
        "meta_ra_of_asc_node": 3.3421,
        "meta_arg_of_pericenter": 139.0174,
        "meta_mean_anomaly": 352.7891,
        "meta_ephemeris_type": 0,
        "meta_classification_type": "U",
        "meta_norad_cat_id": 34350,
        "meta_element_set_no": 999,
        "meta_rev_at_epoch": 88275,
        "meta_bstar": 0.00050102784,
        "meta_mean_motion_dot": 1.786e-05,
        "meta_mean_motion_ddot": 0,
        "tle_line1": "1 34350U 97051ES  25345.50724203  .00001786  00000+0  50103-3 0  9992",
        "tle_line2": "2 34350  86.3276   3.3421 0022725 139.0174 352.7891 14.45383179882755"
      },
      "geometry": {
        "type": "Point",
        "coordinates": [
          -158.22038450047629,
          -78.63147362727815
        ]
      }
    },
    {
      "type": "Feature",
      "properties": {
        "norad_id": 34366,
        "name": "IRIDIUM 33 DEB",
        "group": "iridium-33-debris",
        "lat": -22.520906344263725,
        "lon": -128.83360089829156,
        "alt_km": 710.1021359495217,
        "timestamp": "2025-12-11T22:43:47.654644+00:00",
        "meta_object_name": "IRIDIUM 33 DEB",
        "meta_object_id": "1997-051FJ",
        "meta_epoch": "2025-12-11T05:33:55.951776",
        "meta_mean_motion": 14.54036307,
        "meta_eccentricity": 0.00222951,
        "meta_inclination": 86.3694,
        "meta_ra_of_asc_node": 49.9688,
        "meta_arg_of_pericenter": 144.5199,
        "meta_mean_anomaly": 276.4662,
        "meta_ephemeris_type": 0,
        "meta_classification_type": "U",
        "meta_norad_cat_id": 34366,
        "meta_element_set_no": 999,
        "meta_rev_at_epoch": 88160,
        "meta_bstar": 0.0016787671,
        "meta_mean_motion_dot": 7.125e-05,
        "meta_mean_motion_ddot": 0,
        "tle_line1": "1 34366U 97051FJ  25345.23189759  .00007125  00000+0  16788-2 0  9993",
        "tle_line2": "2 34366  86.3694  49.9688 0022295 144.5199 276.4662 14.54036307881606"
      },
      "geometry": {
        "type": "Point",
        "coordinates": [
          -128.83360089829156,
          -22.520906344263725
        ]
      }
    },
    {
      "type": "Feature",
      "properties": {
        "norad_id": 34375,
        "name": "IRIDIUM 33 DEB",
        "group": "iridium-33-debris",
        "lat": -41.32380801265988,
        "lon": 6.162161574381656,
        "alt_km": 840.8435082128735,
        "timestamp": "2025-12-11T22:43:47.654657+00:00",
        "meta_object_name": "IRIDIUM 33 DEB",
        "meta_object_id": "1997-051FT",
        "meta_epoch": "2025-12-11T00:23:27.996864",
        "meta_mean_motion": 14.17987093,
        "meta_eccentricity": 0.01031842,
        "meta_inclination": 86.4327,
        "meta_ra_of_asc_node": 183.3931,
        "meta_arg_of_pericenter": 132.1212,
        "meta_mean_anomaly": 19.5612,
        "meta_ephemeris_type": 0,
        "meta_classification_type": "U",
        "meta_norad_cat_id": 34375,
        "meta_element_set_no": 999,
        "meta_rev_at_epoch": 86687,
        "meta_bstar": 0.0005759811,
        "meta_mean_motion_dot": 1.262e-05,
        "meta_mean_motion_ddot": 0,
        "tle_line1": "1 34375U 97051FT  25345.01629626  .00001262  00000+0  57598-3 0  9992",
        "tle_line2": "2 34375  86.4327 183.3931 0103184 132.1212  19.5612 14.17987093866879"
      },
      "geometry": {
        "type": "Point",
        "coordinates": [
          6.162161574381656,
          -41.32380801265988
        ]
      }
    },
    {
      "type": "Feature",
      "properties": {
        "norad_id": 34376,
        "name": "IRIDIUM 33 DEB",
        "group": "iridium-33-debris",
        "lat": 74.31212029560481,
        "lon": 173.57188717984522,
        "alt_km": 669.5368561220766,
        "timestamp": "2025-12-11T22:43:47.654668+00:00",
        "meta_object_name": "IRIDIUM 33 DEB",
        "meta_object_id": "1997-051FU",
        "meta_epoch": "2025-12-11T05:49:44.575392",
        "meta_mean_motion": 14.62535541,
        "meta_eccentricity": 0.00270137,
        "meta_inclination": 86.299,
        "meta_ra_of_asc_node": 7.2126,
        "meta_arg_of_pericenter": 171.6428,
        "meta_mean_anomaly": 188.5239,
        "meta_ephemeris_type": 0,
        "meta_classification_type": "U",
        "meta_norad_cat_id": 34376,
        "meta_element_set_no": 999,
        "meta_rev_at_epoch": 87985,
        "meta_bstar": 0.0027609719,
        "meta_mean_motion_dot": 0.00014114,
        "meta_mean_motion_ddot": 0,
        "tle_line1": "1 34376U 97051FU  25345.24287703  .00014114  00000+0  27610-2 0  9995",
        "tle_line2": "2 34376  86.2990   7.2126 0027013 171.6428 188.5239 14.62535541879858"
      },
      "geometry": {
        "type": "Point",
        "coordinates": [
          173.57188717984522,
          74.31212029560481
        ]
      }
    },
    {
      "type": "Feature",
      "properties": {
        "norad_id": 34486,
        "name": "IRIDIUM 33 DEB",
        "group": "iridium-33-debris",
        "lat": -47.50905121457568,
        "lon": -163.6619011564583,
        "alt_km": 590.5863227320215,
        "timestamp": "2025-12-11T22:43:47.654679+00:00",
        "meta_object_name": "IRIDIUM 33 DEB",
        "meta_object_id": "1997-051GB",
        "meta_epoch": "2025-12-11T02:42:46.568736",
        "meta_mean_motion": 14.95675901,
        "meta_eccentricity": 0.00135337,
        "meta_inclination": 86.394,
        "meta_ra_of_asc_node": 12.7753,
        "meta_arg_of_pericenter": 118.272,
        "meta_mean_anomaly": 301.206,
        "meta_ephemeris_type": 0,
        "meta_classification_type": "U",
        "meta_norad_cat_id": 34486,
        "meta_element_set_no": 999,
        "meta_rev_at_epoch": 88962,
        "meta_bstar": 0.0032070049,
        "meta_mean_motion_dot": 0.00035889,
        "meta_mean_motion_ddot": 0,
        "tle_line1": "1 34486U 97051GB  25345.11303899  .00035889  00000+0  32070-2 0  9996",
        "tle_line2": "2 34486  86.3940  12.7753 0013533 118.2720 301.2060 14.95675901889620"
      },
      "geometry": {
        "type": "Point",
        "coordinates": [
          -163.6619011564583,
          -47.50905121457568
        ]
      }
    },
    {
      "type": "Feature",
      "properties": {
        "norad_id": 34487,
        "name": "IRIDIUM 33 DEB",
        "group": "iridium-33-debris",
        "lat": 32.026458634062784,
        "lon": 15.010920644165346,
        "alt_km": 749.539936057965,
        "timestamp": "2025-12-11T22:43:47.654689+00:00",
        "meta_object_name": "IRIDIUM 33 DEB",
        "meta_object_id": "1997-051GC",
        "meta_epoch": "2025-12-11T13:19:44.628096",
        "meta_mean_motion": 14.43213873,
        "meta_eccentricity": 0.00326872,
        "meta_inclination": 86.3435,
        "meta_ra_of_asc_node": 12.8871,
        "meta_arg_of_pericenter": 132.1044,
        "meta_mean_anomaly": 26.644,
        "meta_ephemeris_type": 0,
        "meta_classification_type": "U",
        "meta_norad_cat_id": 34487,
        "meta_element_set_no": 999,
        "meta_rev_at_epoch": 88231,
        "meta_bstar": 0.00027773351,
        "meta_mean_motion_dot": 9.6e-06,
        "meta_mean_motion_ddot": 0,
        "tle_line1": "1 34487U 97051GC  25345.55537764  .00000960  00000+0  27773-3 0  9992",
        "tle_line2": "2 34487  86.3435  12.8871 0032687 132.1044  26.6440 14.43213873882315"
      },
      "geometry": {
        "type": "Point",
        "coordinates": [
          15.010920644165346,
          32.026458634062784
        ]
      }
    },
    {
      "type": "Feature",
      "properties": {
        "norad_id": 34488,
        "name": "IRIDIUM 33 DEB",
        "group": "iridium-33-debris",
        "lat": 64.20244190525752,
        "lon": 118.5645231369181,
        "alt_km": 467.9392547537045,
        "timestamp": "2025-12-11T22:43:47.654699+00:00",
        "meta_object_name": "IRIDIUM 33 DEB",
        "meta_object_id": "1997-051GD",
        "meta_epoch": "2025-12-11T08:05:29.176800",
        "meta_mean_motion": 15.28894611,
        "meta_eccentricity": 0.00136408,
        "meta_inclination": 86.3246,
        "meta_ra_of_asc_node": 306.5086,
        "meta_arg_of_pericenter": 54.3044,
        "meta_mean_anomaly": 305.9471,
        "meta_ephemeris_type": 0,
        "meta_classification_type": "U",
        "meta_norad_cat_id": 34488,
        "meta_element_set_no": 999,
        "meta_rev_at_epoch": 89218,
        "meta_bstar": 0.0084778967,
        "meta_mean_motion_dot": 0.00245926,
        "meta_mean_motion_ddot": 0,
        "tle_line1": "1 34488U 97051GD  25345.33714325  .00245926  00000+0  84779-2 0  9990",
        "tle_line2": "2 34488  86.3246 306.5086 0013640  54.3044 305.9471 15.28894611892182"
      },
      "geometry": {
        "type": "Point",
        "coordinates": [
          118.5645231369181,
          64.20244190525752
        ]
      }
    }
  ]
}